OBJECT_NAME,OBJECT_ID,EPOCH,MEAN_MOTION,ECCENTRICITY,INCLINATION,RA_OF_ASC_NODE,ARG_OF_PERICENTER,MEAN_ANOMALY,EPHEMERIS_TYPE,CLASSIFICATION_TYPE,NORAD_CAT_ID,ELEMENT_SET_NO,REV_AT_EPOCH,BSTAR,MEAN_MOTION_DOT,MEAN_MOTION_DDOT
FENGYUN 3D,2017-072A,2026-07-07T12:20:56.664672,14.19742703,.0001973,99.0142,163.3051,29.1015,331.0269,0,U,43010,999,44787,-.58639E-4,-.17E-5,0
NOAA 20 (JPSS-1),2017-073A,2026-07-07T12:18:29.844288,14.19515451,.0001097,98.7773,127.7951,130.4368,229.6904,0,U,43013,999,44735,.43599E-4,.48E-6,0
GOES 17,2018-022A,2026-07-07T11:36:40.389120,1.00271851,.0000611,0.9856,85.3881,61.0437,223.6936,0,U,43226,999,3062,0,-.168E-5,0
SENTINEL-3B,2018-039A,2026-07-07T04:14:28.024800,14.26740486,.0000963,98.6239,255.4214,118.9874,241.1403,0,U,43437,999,42697,.51893E-4,.82E-6,0
FENGYUN 2H,2018-050A,2026-07-07T12:24:45.306720,1.00268564,.0002004,3.0803,78.8421,124.1613,347.9133,0,U,43491,999,2964,0,-.115E-5,0
METOP-C,2018-087A,2026-07-07T11:31:42.690144,14.21517595,.0002199,98.6634,247.7120,103.6263,256.5160,0,U,43689,999,39771,.52097E-4,.71E-6,0
GEO-KOMPSAT-2A,2018-100A,2026-07-07T12:38:43.715040,1.00271041,.0002316,0.0411,146.2921,313.3360,143.8112,0,U,43823,999,2783,0,-.328E-5,0
METEOR-M2 2,2019-038A,2026-07-07T11:24:45.605376,14.24371280,.0001198,98.9159,176.0611,18.4195,341.7026,0,U,44387,999,36418,.21228E-5,-.41E-6,0
ARKTIKA-M 1,2021-016A,2026-07-06T22:19:47.601984,2.00615031,.7294848,63.2564,54.7781,270.0184,14.5557,0,U,47719,999,3918,0,-.246E-5,0
FENGYUN 3E,2021-062A,2026-07-07T11:54:28.262880,14.19906850,.0002546,98.7500,191.6779,52.2557,307.8850,0,U,49008,999,25946,.17603E-3,.33E-5,0
GOES 18,2022-021A,2026-07-07T13:30:53.794368,1.00271393,.000055,0.0038,164.6235,8.2423,178.3783,0,U,51850,999,679,0,.112E-5,0
NOAA 21 (JPSS-2),2022-150A,2026-07-07T11:23:41.152704,14.19540205,.0002628,98.7060,126.9232,118.1767,241.9675,0,U,54234,999,18942,.3797E-4,.37E-6,0
METEOSAT-12 (MTG-I1),2022-170C,2026-07-07T06:54:03.093120,1.00266625,.0004002,0.7167,18.2557,82.3017,288.0179,0,U,54743,999,1317,0,.7E-7,0
TIANMU-1 03,2023-039A,2026-07-07T11:35:01.359168,15.47886511,.0003217,97.5246,3.2554,46.0971,314.0544,0,U,55973,999,18397,.2078E-3,.10724E-3,0
TIANMU-1 04,2023-039B,2026-07-07T12:41:27.493152,15.48505001,.0003729,97.5180,2.4593,40.1297,320.0228,0,U,55974,999,18399,.20746E-3,.10941E-3,0
TIANMU-1 05,2023-039C,2026-07-07T12:41:50.802144,15.47809951,.0003558,97.5226,2.9115,66.0907,294.0716,0,U,55975,999,18396,.20087E-3,.10335E-3,0
TIANMU-1 06,2023-039D,2026-07-07T12:48:11.656800,15.48403099,.0003722,97.5232,3.5725,59.5893,300.5724,0,U,55976,999,18399,.20698E-3,.10876E-3,0
FENGYUN 3G,2023-055A,2026-07-07T12:03:01.936800,15.53549394,.0007212,49.9916,241.2773,21.8067,338.3206,0,U,56232,999,18316,.24269E-3,.15324E-3,0
METEOR-M2 3,2023-091A,2026-07-07T04:38:36.335904,14.24048492,.0005103,98.6077,242.7614,108.1933,251.9802,0,U,57166,999,15736,.99571E-5,-.2E-6,0
TIANMU-1 07,2023-101A,2026-07-07T12:09:23.193216,15.30054187,.000415,97.2582,238.7096,80.5309,279.6401,0,U,57399,999,16475,.15251E-3,.4362E-4,0
TIANMU-1 08,2023-101B,2026-07-07T11:21:16.290144,15.30057960,.0005222,97.2570,238.4446,66.0283,294.1504,0,U,57400,999,16474,.15418E-3,.4412E-4,0
TIANMU-1 09,2023-101C,2026-07-07T12:30:54.479232,15.30097335,.0004728,97.2528,237.8973,82.1043,278.0735,0,U,57401,999,16475,.15557E-3,.4458E-4,0
TIANMU-1 10,2023-101D,2026-07-07T11:44:50.860320,15.30070177,.0006168,97.2608,238.9373,74.6054,285.5868,0,U,57402,999,16474,.15934E-3,.4564E-4,0
FENGYUN 3F,2023-111A,2026-07-07T11:30:36.842112,14.19942570,.0001412,98.6828,258.1095,80.1372,279.9964,0,U,57490,999,15174,.27592E-4,.15E-6,0
ARKTIKA-M 2,2023-198A,2026-07-06T16:49:25.410720,2.00609243,.6907948,63.2193,152.1833,267.3642,18.7597,0,U,58584,999,1871,0,.205E-5,0
TIANMU-1 11,2023-205A,2026-07-07T11:56:30.498144,15.27211044,.0006865,97.3446,209.7373,296.9524,63.1014,0,U,58645,999,14062,.14109E-3,.3691E-4,0
TIANMU-1 12,2023-205B,2026-07-07T11:15:31.867776,15.27040389,.0005457,97.3434,209.4593,270.4509,89.6104,0,U,58646,999,14060,.14515E-3,.3779E-4,0
TIANMU-1 13,2023-205C,2026-07-07T12:03:37.983744,15.27033383,.0005156,97.3462,209.7694,246.1983,113.8716,0,U,58647,999,14060,.14376E-3,.3741E-4,0
TIANMU-1 14,2023-205D,2026-07-07T11:41:28.615200,15.27077626,.0005855,97.3399,208.9202,254.2656,105.7938,0,U,58648,999,14060,.14599E-3,.3806E-4,0
TIANMU-1 19,2023-208A,2026-07-07T11:21:34.817760,15.31893823,.0003888,97.4515,304.8826,229.3699,130.7204,0,U,58660,999,14043,.19213E-3,.5838E-4,0
TIANMU-1 20,2023-208B,2026-07-07T13:27:19.863648,15.33083806,.0005765,97.4457,305.6270,243.6199,116.4452,0,U,58661,999,14054,.18296E-3,.5769E-4,0
