FENGYUN 3D              
1 43010U 17072A   26188.51454473 -.00000170  00000+0 -58639-4 0  9997
2 43010  99.0142 163.3051 0001973  29.1015 331.0269 14.19742703447874
NOAA 20 (JPSS-1)        
1 43013U 17073A   26188.51284542  .00000048  00000+0  43599-4 0  9990
2 43013  98.7773 127.7951 0001097 130.4368 229.6904 14.19515451447359
GOES 17                 
1 43226U 18022A   26188.48380080 -.00000168  00000+0  00000+0 0  9990
2 43226   0.9856  85.3881 0000611  61.0437 223.6936  1.00271851 30626
SENTINEL-3B             
1 43437U 18039A   26188.17671325  .00000082  00000+0  51893-4 0  9998
2 43437  98.6239 255.4214 0000963 118.9874 241.1403 14.26740486426974
FENGYUN 2H              
1 43491U 18050A   26188.51719105 -.00000115  00000+0  00000+0 0  9995
2 43491   3.0803  78.8421 0002004 124.1613 347.9133  1.00268564 29644
METOP-C                 
1 43689U 18087A   26188.48035521  .00000071  00000+0  52097-4 0  9991
2 43689  98.6634 247.7120 0002199 103.6263 256.5160 14.21517595397715
GEO-KOMPSAT-2A          
1 43823U 18100A   26188.52689485 -.00000328  00000+0  00000+0 0  9994
2 43823   0.0411 146.2921 0002316 313.3360 143.8112  1.00271041 27830
METEOR-M2 2             
1 44387U 19038A   26188.47552784 -.00000041  00000+0  21228-5 0  9999
2 44387  98.9159 176.0611 0001198  18.4195 341.7026 14.24371280364185
ARKTIKA-M 1             
1 47719U 21016A   26187.93041206 -.00000246  00000+0  00000+0 0  9998
2 47719  63.2564  54.7781 7294848 270.0184  14.5557  2.00615031 39188
FENGYUN 3E              
1 49008U 21062A   26188.49616045  .00000330  00000+0  17603-3 0  9997
2 49008  98.7500 191.6779 0002546  52.2557 307.8850 14.19906850259465
GOES 18                 
1 51850U 22021A   26188.56312262  .00000112  00000+0  00000+0 0  9990
2 51850   0.0038 164.6235 0000550   8.2423 178.3783  1.00271393  6793
NOAA 21 (JPSS-2)        
1 54234U 22150A   26188.47478186  .00000037  00000+0  37970-4 0  9997
2 54234  98.7060 126.9232 0002628 118.1767 241.9675 14.19540205189423
METEOSAT-12 (MTG-I1)    
1 54743U 22170C   26188.28753580  .00000007  00000+0  00000+0 0  9993
2 54743   0.7167  18.2557 0004002  82.3017 288.0179  1.00266625 13176
TIANMU-1 03             
1 55973U 23039A   26188.48265462  .00010724  00000+0  20780-3 0  9991
2 55973  97.5246   3.2554 0003217  46.0971 314.0544 15.47886511183978
TIANMU-1 04             
1 55974U 23039B   26188.52879043  .00010941  00000+0  20746-3 0  9996
2 55974  97.5180   2.4593 0003729  40.1297 320.0228 15.48505001183995
TIANMU-1 05             
1 55975U 23039C   26188.52906021  .00010335  00000+0  20087-3 0  9999
2 55975  97.5226   2.9115 0003558  66.0907 294.0716 15.47809951183966
TIANMU-1 06             
1 55976U 23039D   26188.53346825  .00010876  00000+0  20698-3 0  9999
2 55976  97.5232   3.5725 0003722  59.5893 300.5724 15.48403099183991
FENGYUN 3G              
1 56232U 23055A   26188.50210575  .00015324  00000+0  24269-3 0  9993
2 56232  49.9916 241.2773 0007212  21.8067 338.3206 15.53549394183162
METEOR-M2 3             
1 57166U 23091A   26188.19347611 -.00000020  00000+0  99571-5 0  9995
2 57166  98.6077 242.7614 0005103 108.1933 251.9802 14.24048492157361
TIANMU-1 07             
1 57399U 23101A   26188.50651844  .00004362  00000+0  15251-3 0  9999
2 57399  97.2582 238.7096 0004150  80.5309 279.6401 15.30054187164754
TIANMU-1 08             
1 57400U 23101B   26188.47310521  .00004412  00000+0  15418-3 0  9993
2 57400  97.2570 238.4446 0005222  66.0283 294.1504 15.30057960164748
TIANMU-1 09             
1 57401U 23101C   26188.52146388  .00004458  00000+0  15557-3 0  9992
2 57401  97.2528 237.8973 0004728  82.1043 278.0735 15.30097335164751
TIANMU-1 10             
1 57402U 23101D   26188.48947755  .00004564  00000+0  15934-3 0  9992
2 57402  97.2608 238.9373 0006168  74.6054 285.5868 15.30070177164749
FENGYUN 3F              
1 57490U 23111A   26188.47959308  .00000015  00000+0  27592-4 0  9997
2 57490  98.6828 258.1095 0001412  80.1372 279.9964 14.19942570151743
ARKTIKA-M 2             
1 58584U 23198A   26187.70098855  .00000205  00000+0  00000+0 0  9994
2 58584  63.2193 152.1833 6907948 267.3642  18.7597  2.00609243 18712
TIANMU-1 11             
1 58645U 23205A   26188.49757521  .00003691  00000+0  14109-3 0  9991
2 58645  97.3446 209.7373 0006865 296.9524  63.1014 15.27211044140621
TIANMU-1 12             
1 58646U 23205B   26188.46911884  .00003779  00000+0  14515-3 0  9991
2 58646  97.3434 209.4593 0005457 270.4509  89.6104 15.27040389140609
TIANMU-1 13             
1 58647U 23205C   26188.50252296  .00003741  00000+0  14376-3 0  9996
2 58647  97.3462 209.7694 0005156 246.1983 113.8716 15.27033383140603
TIANMU-1 14             
1 58648U 23205D   26188.48713675  .00003806  00000+0  14599-3 0  9996
2 58648  97.3399 208.9202 0005855 254.2656 105.7938 15.27077626140606
TIANMU-1 19             
1 58660U 23208A   26188.47331965  .00005838  00000+0  19213-3 0  9995
2 58660  97.4515 304.8826 0003888 229.3699 130.7204 15.31893823140438
TIANMU-1 20             
1 58661U 23208B   26188.56064657  .00005769  00000+0  18296-3 0  9990
2 58661  97.4457 305.6270 0005765 243.6199 116.4452 15.33083806140548
